"school_name","school_type","city","telephone0","telephone1","fax","website","email","formation_type","network_type","level","administrative_region","language","code","schoolboard","manager","address","city_province","postal_code"
"Centre d'éducation des adultes des Sommets","Éducation des adultes (public)","Magog","(819) 847-1610","(819) 847-1610","(819) 843-3837","http://www.csdessommets.qc.ca/ecoles/CEAMAGOG/index.htm","ceamagog@csdessommets.qc.ca","Générale","Public","Éducation des adultes","Estrie","Anglais, Français","753305","Commission scolaire des Sommets","Jacques Girard","277, rue Saint-Patrice Ouest","Magog (Québec)","J1X 1W4"
"Centre de formation professionnelle 24-Juin","Formation professionnelle (public)","Sherbrooke","(819) 822-5420","(819) 822-5420","(819) 822-6847","","24juin@csrs.qc.ca","Professionnelle","Public","Formation professionnelle","Estrie","Français","752470","Commission scolaire de la Région-de-Sherbrooke","Julie Caron","639, rue du 24-Juin","Sherbrooke (Québec)","J1E 1H1"
"Centre de formation professionnelle de l'Asbesterie","Formation professionnelle (public)","Asbestos","(819) 847-1610","(819) 847-1610","(819) 879-0474","","cfpasbestos@csdessommets.qc.ca","Professionnelle","Public","Formation professionnelle","Estrie","Français","753401","Commission scolaire des Sommets","Claude Carrier","340, boulevard Morin","Asbestos (Québec)","J1T 3C2"
"École de la Passerelle","Préscolaire et primaire (public)","Asbestos","(819) 847-1610","(819) 847-1610","(819) 879-5865","","LaPasserelle@csdessommets.qc.ca","Générale","Public","Préscolaire, Primaire","Estrie","Français","753003","Commission scolaire des Sommets","Chantal Landry","410, 1re Avenue","Asbestos (Québec)","J1T 1Z2"
"École de la Tourelle","Préscolaire et primaire (public)","Asbestos","(819) 847-1610","(819) 847-1610","(819) 879-5554","http://www.csdessommets.qc.ca/ecoles/tourelle/index.html","latourelle@csdessommets.qc.ca","Générale","Public","Préscolaire, Primaire","Estrie","Français","753006","Commission scolaire des Sommets","Serge Dion","180, rue Genest","Asbestos (Québec)","J1T 1A9"
"École secondaire de l'Escale","Secondaire (public)","Asbestos","(819) 847-1610","(819) 847-1610","(819) 879-6698","","lescale@csdessommets.qc.ca","Générale","Public","Secondaire","Estrie","Français","753012","Commission scolaire des Sommets","Cherif Milky","430, 5e Avenue","Asbestos (Québec)","J1T 1X2"
"École de la Source-Vive","Préscolaire et primaire (public)","Ascot Corner","(819) 822-5678","(819) 822-5678","(819) 823-3216","http://www.csrs.qc.ca/etablissements","sourcevive@csrs.qc.ca","Générale","Public","Préscolaire, Primaire","Estrie","Français","752037","Commission scolaire de la Région-de-Sherbrooke","Lison Ratté","125, rue du Collège","Ascot Corner (Québec)","J0B 1A0"
"Centre d'éducation des adultes de la Commission scolaire des Hauts-Cantons","Éducation des adultes (public)","East Angus","(819) 832-3637","(819) 832-3637","(819) 832-4480","","Claude.Roy@cshc.qc.ca","Générale","Public","Éducation des adultes","Estrie","Anglais, Français","751311","Commission scolaire des Hauts-Cantons","Chantal Leroux","188, rue Kennedy","East Angus (Québec)","J0B 1R0"
"École d'Audet","Préscolaire et primaire (public)","Audet","(819) 583-1664","(819) 583-1664","(819) 583-3003","","Diane.Corriveau@cshc.qc.ca","Générale","Public","Préscolaire, Primaire","Estrie","Français","751079","Commission scolaire des Hauts-Cantons","Annie Deslongchamps","242, rue Principale","Audet (Québec)","G0Y 1A0"
"Collège Notre-Dame-des-Servites","Secondaire (privé)","Ayer's Cliff","(819) 838-4221","(819) 838-4221","(819) 838-4222","http://www.cnds.qc.ca","courrier@cnds.qc.ca","Générale","Privé","Secondaire","Estrie","Français","129501","Collège Notre-Dame-des-Servites","Carl Morissette","470, rue Main","Ayer's Cliff (Québec)","J0B 1C0"
"École primaire d'Ayer's Cliff","Préscolaire et primaire (public)","Ayer's Cliff","(819) 838-4983","(819) 838-4983","(819) 838-1385","http://ayerscliff.etsb.qc.ca/","channellg@etsb.qc.ca","Générale","Public","Préscolaire, Primaire","Estrie","Anglais","883002","Commission scolaire Eastern Townships","Steve Weary","952, rue Sanborn","Ayer's Cliff (Québec)","J0B 1C0"
"École Saint-Barthélemy","Préscolaire et primaire (public)","Ayer's Cliff","(819) 847-1610","(819) 847-1610","(819) 838-4997","http://csdessommets.qc.ca/ecoles/bart/index.html","stbarthelemy@csdessommets.qc.ca","Générale","Public","Préscolaire, Primaire","Estrie","Français","753034","Commission scolaire des Sommets","Jocelyne Morel","206, rue Rosedale","Ayer's Cliff (Québec)","J0B 1C0"
"École Notre-Dame-de-Bonsecours","Préscolaire et primaire (public)","Bonsecours","(819) 847-1610","(819) 847-1610","(450) 532-5262","","ndbonsecours@csdessommets.qc.ca","Générale","Public","Préscolaire, Primaire","Estrie","Français","753060","Commission scolaire des Sommets","Paul Lessard","601, rue du Couvent","Bonsecours (Québec)","J0E 1H0"
"École primaire Pope Memorial","Préscolaire et primaire (public)","Bury","(819) 872-3771","(819) 872-3771","(819) 872-3771","http://pope.etsb.qc.ca/","lower@etsb.qc.ca","Générale","Public","Préscolaire, Primaire","Estrie","Anglais","883014","Commission scolaire Eastern Townships","Norma Humphrey","523, rue Stokes","Bury (Québec)","J0B 1J0"
"Centre de formation professionnelle de Coaticook (CRIFA)","Formation professionnelle (public)","Coaticook","(819) 849-9588","(819) 849-9588","(819) 849-3682","","Lison.Pouliot@cshc.qc.ca","Professionnelle","Public","Formation professionnelle","Estrie","Français","751423","Commission scolaire des Hauts-Cantons","Benoît Rousseau","125, rue Morgan","Coaticook (Québec)","J1A 1V6"
"Collège Rivier","Secondaire (privé)","Coaticook","(819) 849-4833","(819) 849-4833","(819) 849-3621","http://www.crivier.qc.ca","crivier@crivier.qc.ca","Générale","Privé","Secondaire","Estrie","Français","144501","Collège Rivier","Benoit Hélie","343, rue St-Jacques Nord","Coaticook (Québec)","J1A 2R2"
"École Gendreau","Préscolaire et primaire (public)","Coaticook","(819) 849-7075","(819) 849-7075","(819) 849-7076","","Suzanne.Lanciaux@cshc.qc.ca","Générale","Public","Préscolaire, Primaire","Estrie","Français","751024","Commission scolaire des Hauts-Cantons","Sylvie Legault","102, rue Cutting","Coaticook (Québec)","J1A 2G4"
"École La Frontalière","Secondaire (public)","Coaticook","(819) 849-4825","(819) 849-4825","(819) 849-4334","http://lafrontaliere.cshc.qc.ca/","Carole.Moreau@cshc.qc.ca","Générale","Public","Secondaire","Estrie","Français","751005","Commission scolaire des Hauts-Cantons","Caroline Champeau","311, rue Saint-Paul Est","Coaticook (Québec)","J1A 1G1"
"École Monseigneur-Durand","Préscolaire et primaire (public)","Coaticook","(819) 849-7084","(819) 849-7084","(819) 849-7382","","Brigitte.Duteau@cshc.qc.ca","Générale","Public","Préscolaire, Primaire","Estrie","Français","751041","Commission scolaire des Hauts-Cantons","Hélène Blais","367, rue Saint-Paul Est","Coaticook (Québec)","J1A 1G1"
"École Sacré-Coeur","Préscolaire et primaire (public)","Coaticook","(819) 849-2749","(819) 849-2749","(819) 849-9475","","Carole.Labonte@cshc.qc.ca","Générale","Public","Préscolaire, Primaire","Estrie","Français","751027","Commission scolaire des Hauts-Cantons","Chantal Bélanger","211, rue Saint-Jean Baptiste","Coaticook (Québec)","J1A 2J4"
"École Saint-Luc","Préscolaire et primaire (public)","Coaticook","(819) 849-9106","(819) 849-9106","(819) 849-9964","","Michele.Genesse@cshc.qc.ca","Générale","Public","Préscolaire, Primaire","Estrie","Français","751030","Commission scolaire des Hauts-Cantons","Sylvie Legault","1186, chemin de Baldwin Mills-Barnston","Coaticook (Québec)","J1A 2S4"
"École Louis-Saint-Laurent","Préscolaire et primaire (public)","Compton","(819) 849-7803","(819) 849-7803","(819) 835-0731","","Carole.Mcduff@cshc.qc.ca","Générale","Public","Préscolaire, Primaire","Estrie","Français","751039","Commission scolaire des Hauts-Cantons","Normand Lapointe","6835, route Louis-S.-St-Laurent","Compton (Québec)","J0B 1L0"
"École Notre-Dame-de-la-Paix","Préscolaire et primaire (public)","Cookshire-Eaton","(819) 822-5581","(819) 822-5581","(819) 837-0399","http://www.csrs.qc.ca/etablissements","nddelapaix@csrs.qc.ca","Générale","Public","Préscolaire, Primaire","Estrie","Français","752048","Commission scolaire de la Région-de-Sherbrooke","Patrick Levasseur","51, chemin Jordan Hill","Cookshire-Eaton (Québec)","J0B 2A0"
"École primaire de Cookshire","Préscolaire et primaire (public)","Cookshire-Eaton","(819) 875-3785","(819) 875-3785","(819) 875-1168","http://cookshire.etsb.qc.ca/","vachons@etsb.qc.ca","Générale","Public","Préscolaire, Primaire","Estrie","Anglais","883005","Commission scolaire Eastern Townships","Cora Macleod","95, rue du Parc","Cookshire-Eaton (Québec)","J0B 1M0"
"École primaire de Sawyerville","Préscolaire et primaire (public)","Cookshire-Eaton","(819) 889-2263","(819) 889-2263","(819) 889-1114","http://sawyerville.etsb.qc.ca/","humphreyl@etsb.qc.ca","Générale","Public","Préscolaire, Primaire","Estrie","Anglais","883016","Commission scolaire Eastern Townships","Norma Humphrey","51, rue Cookshire","Cookshire-Eaton (Québec)","J0B 3A0"
"École Saint-Camille","Préscolaire et primaire (public)","Cookshire-Eaton","(819) 875-5556","(819) 875-5556","(819) 875-3368","","Lucie.Spooner@cshc.qc.ca","Générale","Public","Préscolaire, Primaire","Estrie","Français","751051","Commission scolaire des Hauts-Cantons","Marielle Genest","150, rue Bibeau","Cookshire-Eaton (Québec)","J0B 1M0"
"Centre d'éducation des adultes Monseigneur-Beaudoin-Les Sources","Éducation des adultes (public)","Saint-Georges","(418) 228-5541","(418) 228-5541","(418) 226-2460","http://www.csbe.qc.ca","eabeaudoin@csbe.qc.ca","Générale","Public","Éducation des adultes","Chaudière-Appalaches","Anglais, Français","823361","Commission scolaire de la Beauce-Etchemin","Mario Bergeron","1600, 1re Avenue Ouest","Saint-Georges (Québec)","G5Y 3N3"
"École de la Haute-Beauce","Préscolaire, primaire et secondaire (public)","La Guadeloupe","(418) 228-5541","(418) 228-5541","(418) 459-3380","http://www.csbe.qc.ca/dbweb/scripto.exe?function=validation3&resultat=364632&rwd=371122","guadeloupe@csbe.qc.ca","Générale","Public","Préscolaire, Primaire, Secondaire","Chaudière-Appalaches","Français","823093","Commission scolaire de la Beauce-Etchemin","Simon Fortier","427, 11e Rue Ouest","La Guadeloupe (Québec)","G0M 1G0"
"École Masson","Préscolaire et primaire (public)","Danville","(819) 847-1610","(819) 847-1610","(819) 839-2468","http://www.csdessommets.qc.ca/ecoles/masson/index.html","masson@csdessommets.qc.ca","Générale","Public","Préscolaire, Primaire","Estrie","Français","753007","Commission scolaire des Sommets","Daniel Champagne","30, rue du Collège","Danville (Québec)","J0A 1A0"
"École primaire Asbestos-Danville-Shipton","Préscolaire et primaire (public)","Danville","(819) 839-2352","(819) 839-2352","(819) 839-2352","http://ads.etsb.qc.ca/","bachandj@etsb.qc.ca","Générale","Public","Préscolaire, Primaire","Estrie","Anglais","883001","Commission scolaire Eastern Townships","Kirk Robinson","217, rue Water","Danville (Québec)","J0A 1A0"
"École Sancta-Maria","Préscolaire et primaire (public)","Dixville","(819) 849-3771","(819) 849-3771","(819) 849-2451","","Michele.Genesse@cshc.qc.ca","Générale","Public","Préscolaire, Primaire","Estrie","Français","751032","Commission scolaire des Hauts-Cantons","Louise Dupuis","290, rue Parker","Dixville (Québec)","J0B 1P0"
"École Notre-Dame-du-Paradis","Préscolaire et primaire (public)","Dudswell","(819) 832-1734","(819) 832-1734","(819) 887-6083","","Kim.Munkittrick@cshc.qc.ca","Générale","Public","Préscolaire, Primaire","Estrie","Français","751067","Commission scolaire des Hauts-Cantons","Kathy Lapointe","184, rue Principale","Dudswell (Québec)","J0B 2L0"
"Centre de formation professionnelle du Haut-Saint-François","Formation professionnelle (public)","East Angus","(819) 832-3637","(819) 832-3637","(819) 832-4480","","Claude.Roy@cshc.qc.ca","Professionnelle","Public","Formation professionnelle","Estrie","Français","751421","Commission scolaire des Hauts-Cantons","Annie Gagnon","188, rue Kennedy","East Angus (Québec)","J0B 1R0"
"Centre de formation professionnelle le Granit et du Haut-Saint-François","Formation professionnelle (public)","Lac-Mégantic","(819) 583-5773","(819) 583-5773","(819) 583-6144","http://legranit.cshc.qc.ca/","Johanne.Mercier@cshc.qc.ca","Professionnelle","Public","Formation professionnelle","Estrie","Français","751422","Commission scolaire des Hauts-Cantons","Annie Gagnon","3409, rue Laval","Lac-Mégantic (Québec)","G6B 1A5"
"École du Parchemin","Préscolaire et primaire (public)","East Angus","(819) 832-2477","(819) 832-2477","(819) 832-2478","","Micheline.Boucher@cshc.qc.ca","Générale","Public","Préscolaire, Primaire","Estrie","Français","751047","Commission scolaire des Hauts-Cantons","Angèle Desgagnés","162, rue Saint-Jean Est","East Angus (Québec)","J0B 1R0"
"Polyvalente Louis-Saint-Laurent","Secondaire (public)","East Angus","(819) 832-2471","(819) 832-2471","(819) 832-1758","http://louisstlaurent.cshc.qc.ca/","Annie.Rodrigue@cshc.qc.ca","Générale","Public","Secondaire","Estrie","Français","751007","Commission scolaire des Hauts-Cantons","Claude D. Giguère","188, rue Kennedy","East Angus (Québec)","J0B 1R0"
"École Notre-Dame-de-Toutes-Aides et Saint-Pie-X","Préscolaire et primaire (public)","Saint-Malo","(819) 849-7280","(819) 849-7280","(819) 658-2212","","Caroline.Pilote@cshc.qc.ca","Générale","Public","Préscolaire, Primaire","Estrie","Français","751036","Commission scolaire des Hauts-Cantons","Normand Lapointe","127, rue Principale","Saint-Malo (Québec)","J0B 2Y0"
"École du Val-de-Grâce","Préscolaire et primaire (public)","Eastman","(819) 847-1610","(819) 847-1610","(450) 297-0282","","valdegrace@csdessommets.qc.ca","Générale","Public","Préscolaire, Primaire","Estrie","Français","753036","Commission scolaire des Sommets","Robert Gauvin","500, rue Principale","Eastman (Québec)","J0E 1P0"
"École Notre-Dame-de-Lorette","Préscolaire et primaire (public)","La Patrie","(819) 875-2149","(819) 875-2149","(819) 888-2873","","Micheline.Poulin@cshc.qc.ca","Générale","Public","Préscolaire, Primaire","Estrie","Français","751063","Commission scolaire des Hauts-Cantons","Diane Robillard","44, rue Notre-Dame Ouest","La Patrie (Québec)","J0B 1Y0"
"École des Monts-et-Lacs","Préscolaire et primaire (public)","Lac-Drolet","(819) 583-0365","(819) 583-0365","(819) 549-1141","","Diane.Corriveau@cshc.qc.ca","Générale","Public","Préscolaire, Primaire","Estrie","Français","751080","Commission scolaire des Hauts-Cantons","Annie Deslongchamps","687, rue Dumas","Lac-Drolet (Québec)","G0Y 1C0"
"Centre d'études collégiales de Lac-Mégantic","Collégial (public)","Lac-Mégantic","(819) 583-5432","(819) 583-5432","(819) 583-3588","http://www.cec.lacmegantic.qc.ca","ceclm@cegepbceapp.qc.ca","Technique Préuniversitaire","Public","Collégial","Estrie","Français","937001","Cégep Beauce-Appalaches","","3800, rue Cousineau","Lac-Mégantic (Québec)","G6B 2A3"
"École Notre-Dame-de-Fatima","Préscolaire et primaire (public)","Lac-Mégantic","(819) 583-1086","(819) 583-1086","(819) 583-4114","","Sonia.Therrien@cshc.qc.ca","Générale","Public","Préscolaire, Primaire","Estrie","Français","751074","Commission scolaire des Hauts-Cantons","Éric Croteau","6381, rue Notre-Dame","Lac-Mégantic (Québec)","G6B 2M9"
"Maison familiale rurale de Lac-Mégantic","Secondaire (public)","Lac-Mégantic","(819) 583-1212","(819) 583-1212","(819) 583-3330","http://www.mfrregiondemegantic.qc.ca","jmercier@cshc.qc.ca","Générale","Public","Secondaire","Estrie","Français","751009","Commission scolaire des Hauts-Cantons","Chantal Vigneault","4790, rue Dollard","Lac-Mégantic (Québec)","G6B 1G6"
"Polyvalente Montignac","Secondaire (public)","Lac-Mégantic","(819) 583-3023","(819) 583-3023","(819) 583-0890","http://montignac.cshc.qc.ca/","Suzanne.Stewart@cshc.qc.ca","Générale","Public","Secondaire","Estrie","Français","751006","Commission scolaire des Hauts-Cantons","Patricia Richer","3409, rue Laval","Lac-Mégantic (Québec)","G6B 1A5"
"École de la Feuille-d'Or","Préscolaire et primaire (public)","Lambton","(819) 583-5262","(819) 583-5262","(418) 486-7653","","Johanne.Bedard@cshc.qc.ca","Générale","Public","Préscolaire, Primaire","Estrie","Français","751086","Commission scolaire des Hauts-Cantons","Diane Gaudreau","215, rue de l'Aréna","Lambton (Québec)","G0M 1H0"
"École Saint-Laurent","Primaire (public)","Lawrenceville","(819) 847-1610","(819) 847-1610","(450) 535-6768","","stlaurent@csdessommets.qc.ca","Générale","Public","Primaire","Estrie","Français","753066","Commission scolaire des Sommets","Paul Lessard","1561, rue Principale","Lawrenceville (Québec)","J0E 1W0"
"Centre de formation professionnelle de Memphrémagog","Formation professionnelle (public)","Magog","(819) 847-1610","(819) 847-1610","(819) 843-2953","","cifi@csdessommets.qc.ca","Professionnelle","Public","Formation professionnelle","Estrie","Français","753402","Commission scolaire des Sommets","Daniel Guillot","520, boulevard Poirier","Magog (Québec)","J1X 0A1"
"École Brassard-Saint-Patrice","Préscolaire et primaire (public)","Magog","(819) 847-1610","(819) 847-1610","(819) 868-4176","http://www.csdessommets.qc.ca/ecoles/PATRICE/default.htm","stpatrice@csdessommets.qc.ca","Générale","Public","Préscolaire, Primaire","Estrie","Français","753021","Commission scolaire des Sommets","Sylvie Boisvert","265, rue Saint-Patrice Ouest","Magog (Québec)","J1X 1W4"
"École des Deux-Soleils","Préscolaire et primaire (public)","Magog","(819) 847-1610","(819) 847-1610","(819) 868-4173","","les2soleils@csdessommets.qc.ca","Générale","Public","Préscolaire, Primaire","Estrie","Français","753030","Commission scolaire des Sommets","Linda Lacasse","495, rue Gérin","Magog (Québec)","J1X 4B1"
"École primaire Montessori","Préscolaire et primaire (privé)","Magog","(819) 769-0963","(819) 769-0963","","http://www.monecoleprivee.com","montessorimagog@gmail.com","Générale","Privé","Préscolaire, Primaire","Estrie","Français","605501","École primaire Montessori","Sylvie Des Rosiers","25, chemin Roy","Magog (Québec)","J1X 0N4"
"École primaire Princess Elizabeth","Préscolaire et primaire (public)","Magog","(819) 843-4847","(819) 843-4847","(819) 868-1580","http://princesselizabeth.etsb.qc.ca/","gendreaus@etsb.qc.ca","Générale","Public","Préscolaire, Primaire","Estrie","Anglais","883015","Commission scolaire Eastern Townships","Elaine Baylis-Creary","120, rue Bellevue","Magog (Québec)","J1X 3H2"
"École Sainte-Marguerite","Préscolaire et primaire (public)","Magog","(819) 847-1610","(819) 847-1610","(819) 843-2831","http://www.station05.qc.ca/css/ecoles/stmarg/accueil.htm","stemarguerite@csdessommets.qc.ca","Générale","Public","Préscolaire, Primaire","Estrie","Français","753035","Commission scolaire des Sommets","Marise Cotnoir","295, rue Saint-David","Magog (Québec)","J1X 2Z8"
"École Saint-Jean-Bosco","Préscolaire et primaire (public)","Magog","(819) 847-1610","(819) 847-1610","(819) 843-4717","","stjbosco@csdessommets.qc.ca","Générale","Public","Préscolaire, Primaire","Estrie","Français","753022","Commission scolaire des Sommets","Yvan Demers","63, Jean-Paul II","Magog (Québec)","J1X 1E4"
"École Saint-Pie-X","Préscolaire et primaire (public)","Magog","(819) 847-1610","(819) 847-1610","(819) 843-4016","http://www.csdessommets.qc.ca/ecoles/piex/princ.htm","stpiex@csdessommets.qc.ca","Générale","Public","Préscolaire, Primaire","Estrie","Français","753033","Commission scolaire des Sommets","Lise Couture","176, rue Saint-Alphonse Sud","Magog (Québec)","J1X 3T6"
"École secondaire de la Ruche","Secondaire (public)","Magog","(819) 847-1610","(819) 847-1610","(819) 843-9027","http://www.ecoledelaruche.qc.ca/","laruche@csdessommets.qc.ca","Générale","Public","Secondaire","Estrie","Français","753027","Commission scolaire des Sommets","Martin Riendeau","1255, boulevard des Étudiants","Magog (Québec)","J1X 3Y6"
"École de Sainte-Edwidge & Ligugé","Préscolaire et primaire (public)","Sainte-Edwidge-de-Clifton","(819) 849-9121","(819) 849-9121","(819) 849-9122","","Caroline.Pilote@cshc.qc.ca","Générale","Public","Préscolaire, Primaire","Estrie","Français","751037","Commission scolaire des Hauts-Cantons","Louise Dupuis","1427,  chemin Favreau","Sainte-Edwidge-de-Clifton (Québec)","J0B 2R0"
"École de la Source","Préscolaire et primaire (public)","Nantes","(819) 583-4476","(819) 583-4476","(819) 547-5627","","Melanie.Boulet@cshc.qc.ca","Générale","Public","Préscolaire, Primaire","Estrie","Français","751091","Commission scolaire des Hauts-Cantons","Marcel Boulanger","1249, rue Principale","Nantes (Québec)","G0Y 1G0"
"École primaire de North Hatley","Préscolaire et primaire (public)","North Hatley","(819) 842-2491","(819) 842-2491","(819) 842-2491","http://northhatley.etsb.qc.ca/","loachv@etsb.qc.ca","Générale","Public","Préscolaire, Primaire","Estrie","Anglais","883012","Commission scolaire Eastern Townships","Elaine Baylis-Creary","110, rue School","North Hatley (Québec)","J0B 2C0"
"École de la Voie-Lactée","Préscolaire et primaire (public)","Notre-Dame-des-Bois","(819) 875-3033","(819) 875-3033","(819) 888-2366","","Chantal.Carrier@cshc.qc.ca","Générale","Public","Préscolaire, Primaire","Estrie","Français","751095","Commission scolaire des Hauts-Cantons","Marlène Corriveau","27, route de l'Église","Notre-Dame-des-Bois (Québec)","J0B 2E0"
"École du Baluchon","Préscolaire et primaire (public)","Potton","(819) 847-1610","(819) 847-1610","(450) 292-5717","","lebaluchon@csdessommets.qc.ca","Générale","Public","Préscolaire, Primaire","Estrie","Français","753028","Commission scolaire des Sommets","Lise Couture","330, rue Principale","Potton (Québec)","J0E 1X0"
"École primaire de Mansonville","Préscolaire, primaire et secondaire (public)","Potton","(450) 292-5622","(450) 292-5622","(450) 292-0174","http://teacherweb.com/QC/MansonvilleElementarySchool/HomePage/sdhp1.aspx","gravest@etsb.qc.ca","Générale","Public","Préscolaire, Primaire, Secondaire","Estrie","Anglais","883011","Commission scolaire Eastern Townships","Renalee Gore","5, rue Marion Atwell","Potton (Québec)","J0E 1X0"
"École Notre-Dame-de-Montjoie","Préscolaire et primaire (public)","Racine","(819) 847-1610","(819) 847-1610","(450) 532-5209","","ndmontjoie@csdessommets.qc.ca","Générale","Public","Préscolaire, Primaire","Estrie","Français","753061","Commission scolaire des Sommets","Paul Lessard","138, chemin Brompton","Racine (Québec)","J0E 1Y0"
"École du Plein-Coeur","Préscolaire et primaire (public)","Richmond","(819) 847-1610","(819) 847-1610","(819) 826-2582","","sacrecoeur@csdessommets.qc.ca","Générale","Public","Préscolaire, Primaire","Estrie","Français","753058","Commission scolaire des Sommets","Caroline Monette","555, 7 avenue nord","Richmond (Québec)","J0B 2H0"
"École primaire Saint-Françis","Préscolaire et primaire (public)","Richmond","(819) 826-3737","(819) 826-3737","(819) 826-3738","http://stfrancis.etsb.qc.ca/","kendallp@etsb.qc.ca","Générale","Public","Préscolaire, Primaire","Estrie","Anglais","883018","Commission scolaire Eastern Townships","Gail Richards-Kelso","355, rue Collège Sud","Richmond (Québec)","J0B 2H0"
"École secondaire régionale de Richmond","Secondaire (public)","Richmond","(819) 826-3702","(819) 826-3702","(819) 826-3705","http://richmondhigh.etsb.qc.ca/","coxw@etsb.qc.ca","Générale","Public","Secondaire","Estrie","Anglais","883024","Commission scolaire Eastern Townships","Isabelle Beaulac","375, rue Armstrong","Richmond (Québec)","J0B 2H0"
"École Notre-Dame-de-Lourdes","Préscolaire et primaire (public)","Saint-Adrien","(819) 847-1610","(819) 847-1610","(819) 828-3502","","ndlourdes@csdessommets.qc.ca","Générale","Public","Préscolaire, Primaire","Estrie","Français","753009","Commission scolaire des Sommets","Alexandre Néron","1598, rue Principale","Saint-Adrien (Québec)","J0A 1C0"
"École des Monts-Blancs","Préscolaire et primaire (public)","Saint-Augustin-de-Woburn","(819) 583-3665","(819) 583-3665","(819) 544-9453","","Chantal.Carrier@cshc.qc.ca","Générale","Public","Préscolaire, Primaire","Estrie","Français","751094","Commission scolaire des Hauts-Cantons","Marlène Corriveau","571, rue Saint-Augustin","Saint-Augustin-de-Woburn (Québec)","G0Y 1R0"
"École Christ-Roi","Préscolaire et primaire (public)","Saint-Camille","(819) 847-1610","(819) 847-1610","(819) 828-2404","","christroi@csdessommets.qc.ca","Générale","Public","Préscolaire, Primaire","Estrie","Français","753004","Commission scolaire des Sommets","Alexandre Néron","149, rue Miquelon","Saint-Camille (Québec)","J0A 1G0"
"École Notre-Dame-du-Sourire","Préscolaire et primaire (public)","Saint-Claude","(819) 847-1610","(819) 847-1610","(819) 845-5334","http://www.csdessommets.qc.ca/ecoles/sourire/index.htm","ndsourire@csdessommets.qc.ca","Générale","Public","Préscolaire, Primaire","Estrie","Français","753062","Commission scolaire des Sommets","Marc Poirier","301, route de l'Église","Saint-Claude (Québec)","J0B 2N0"
"École du Jardin-des-Lacs","Préscolaire et primaire (public)","Saint-Denis-de-Brompton","(819) 822-5555","(819) 822-5555","(819) 846-4307","http://www.csrs.qc.ca/etablissements","jardindeslacs@csrs.qc.ca","Générale","Public","Préscolaire, Primaire","Estrie","Français","752046","Commission scolaire de la Région-de-Sherbrooke","Luc Michaud","1050, rue Alfred-Lessard","Saint-Denis-de-Brompton (Québec)","J0B 2P0"
"École de l'Arc-en-Ciel","Préscolaire et primaire (public)","Saint-François-Xavier-de-Brompton","(819) 847-1610","(819) 847-1610","(819) 845-7860","","arcenciel@csdessommets.qc.ca","Générale","Public","Préscolaire, Primaire","Estrie","Français","753051","Commission scolaire des Sommets","Adel Habak","177, rue de l'Église","Saint-François-Xavier-de-Brompton (Québec)","J0B 2V0"
"École Notre-Dame-de-l'Assomption","Préscolaire et primaire (public)","Saint-Georges-de-Windsor","(819) 847-1610","(819) 847-1610","(819) 828-3500","http://csdessommets.qc.ca/ecoles/ndassomption/accueil.htm","ndassomption@csdessommets.qc.ca","Générale","Public","Préscolaire, Primaire","Estrie","Français","753008","Commission scolaire des Sommets","Daniel Champagne","483, rue Principale","Saint-Georges-de-Windsor (Québec)","J0A 1J0"
"École des Trois-Cantons","Préscolaire et primaire (public)","Saint-Isidore-de-Clifton","(819) 875-5643","(819) 875-5643","(819) 658-9003","","Francine.Despres@cshc.qc.ca","Générale","Public","Préscolaire, Primaire","Estrie","Français","751058","Commission scolaire des Hauts-Cantons","Kathy Lapointe","25, rue de l'Église","Saint-Isidore-de-Clifton (Québec)","J0B 2X0"
"École du Sud-de-la-Beauce","Préscolaire et primaire (public)","Saint-Gédéon-de-Beauce","(418) 228-5541","(418) 228-5541","(418) 582-3092","http://www.csbe.qc.ca/nazareth/index.htm","joyeux-compagnons@csbe.qc.ca","Générale","Public","Préscolaire, Primaire","Chaudière-Appalaches","Français","823089","Commission scolaire de la Beauce-Etchemin","Isabelle Poulin","119, 3e Avenue","Saint-Gédéon-de-Beauce (Québec)","G0M 1T0"
"École de Saint-Romain","Préscolaire et primaire (public)","Saint-Romain","(819) 583-1150","(819) 583-1150","(418) 486-2718","","Melanie.Boulet@cshc.qc.ca","Générale","Public","Préscolaire, Primaire","Estrie","Français","751088","Commission scolaire des Hauts-Cantons","Diane Gaudreau","105, rue du Couvent","Saint-Romain (Québec)","G0Y 1L0"
"Maison familiale rurale du Granit","Secondaire (public)","Saint-Romain","(819) 583-5910","(819) 583-5910","(418) 486-2718","http://mfrgranit.com","Suzanne.Royer@cshc.qc.ca","Générale","Public","Secondaire","Estrie","Français","751008","Commission scolaire des Hauts-Cantons","Michelle Paradis","105, rue du Couvent","Saint-Romain (Québec)","G0Y 1L0"
"École Capitaine-Luc-Fortin","Préscolaire et primaire (public)","Henryville","(450) 515-8080","(450) 515-8080","(450) 244-5132","http://sebastien.e.csdhr.qc.ca","epstjosephstsebastien@csdhr.qc.ca","Générale","Public","Préscolaire, Primaire","Montérégie","Français","863030","Commission scolaire des Hautes-Rivières","Dominique Benoît","215, rue Champagnat","Henryville (Québec)","J0J 1E0"
"École des Sommets","Préscolaire et primaire (public)","Saint-Sébastien","(819) 583-2148","(819) 583-2148","(819) 652-1100","","Diane.Moreau@cshc.qc.ca","Générale","Public","Préscolaire, Primaire","Estrie","Français","751084","Commission scolaire des Hauts-Cantons","Marcel Boulanger","287, rue de la Fabrique","Saint-Sébastien (Québec)","G0Y 1M0"
"École Notre-Dame-des-Érables","Préscolaire et primaire (public)","Sainte-Anne-de-la-Rochelle","(819) 847-1610","(819) 847-1610","(450) 539-3197","","nderables@csdessommets.qc.ca","Générale","Public","Préscolaire, Primaire","Estrie","Français","753063","Commission scolaire des Sommets","Paul Lessard","102, rue du Couvent","Sainte-Anne-de-la-Rochelle (Québec)","J0E 2B0"
"École Dominique-Savio","Préscolaire et primaire (public)","Sainte-Catherine-de-Hatley","(819) 847-1610","(819) 847-1610","(819) 843-9264","http://www.csdessommets.qc.ca/ecoles/Dominiquesavio/index.html","dominiquesavio@csdessommets.qc.ca","Générale","Public","Préscolaire, Primaire","Estrie","Français","753024","Commission scolaire des Sommets","Jocelyne Morel","115, rue la Grand-Rue","Sainte-Catherine-de-Hatley (Québec)","J0B 1W0"
"École de Sainte-Cécile","Préscolaire et primaire (public)","Sainte-Cécile-de-Whitton","(819) 583-1383","(819) 583-1383","(819) 583-0810","","Diane.Moreau@cshc.qc.ca","Générale","Public","Préscolaire, Primaire","Estrie","Français","751082","Commission scolaire des Hauts-Cantons","Marcel Boulanger","4570, rue Principale","Sainte-Cécile-de-Whitton (Québec)","G0Y 1J0"
"École Saint-Paul","Préscolaire et primaire (public)","Scotstown","(819) 832-1114","(819) 832-1114","(819) 657-4245","","Micheline.Poulin@cshc.qc.ca","Générale","Public","Préscolaire, Primaire","Estrie","Français","751055","Commission scolaire des Hauts-Cantons","Diane Robillard","67, rue de Ditton","Scotstown (Québec)","J0B 3B0"
"Bishop's College School","Secondaire (privé)","Sherbrooke","(819) 566-0227","(819) 566-0227","(819) 822-8917","http://www.bishopscollegeschool.com","wjohnson@bishopscollegeschool.com","Générale","Privé","Secondaire","Estrie","Anglais","033501","Bishop's college school","Ian Watt","80, chemin Moulton Hill","Sherbrooke (Québec)","J1M 1Z8"
"CDE Collège","Formation professionnelle (privé)","Sherbrooke","(819) 346-5000","(819) 346-5000","(819) 346-4463","http://www.cde-collegecom","jules.belanger@cde-college.com","Professionnelle","Privé","Formation professionnelle","Estrie","Anglais, Français","078501","CDE Collège","Jules Bélanger","37, rue Wellington Nord","Sherbrooke (Québec)","J1H 5A9"
"Cégep de Sherbrooke","Collégial (public)","Sherbrooke","(819) 564-6350","(819) 564-6350","(819) 564-1579","http://cegepsherbrooke.qc.ca/","communications@cegepsherbrooke.qc.ca","Préuniversitaire Technique","Public","Collégial","Estrie","Français","904000","Cégep de Sherbrooke","","475, rue du Cégep","Sherbrooke (Québec)","J1E 4K1"
"Centre d'apprentissage Eastern Townships","Secondaire (public)","Sherbrooke","(819) 822-1385","(819) 822-1385","(819) 822-4248","http://learningcentre.etsb.qc.ca/","sthilairea@etsb.qc.ca","Générale","Public","Secondaire","Estrie","Anglais","883025","Commission scolaire Eastern Townships","Velma Sutherland","1700, rue Collège","Sherbrooke (Québec)","J1M 0C8"
"Centre de Formation  professionnelle de Lennoxville","Formation professionnelle (public)","Sherbrooke","(819) 563-5627","(819) 563-5627","(819) 820-0500","http://www.lvtc.ca/","westonp@etsb.qc.ca","Professionnelle","Public","Formation professionnelle","Estrie","Anglais, Français","883402","Commission scolaire Eastern Townships","Luc Rodrigue","1700, rue Collège","Sherbrooke (Québec)","J1M 0C8"
"Centre de l'éducation aux adultes New Horizons","Éducation des adultes (public)","Sherbrooke","(819) 566-0250","(819) 566-0250","(819) 566-2658","http://newhorizons.etsb.qc.ca/","brayd@etsb.qc.ca","Générale","Public","Éducation des adultes","Estrie","Anglais, Français","883301","Commission scolaire Eastern Townships","Camille Faucher","2365, rue Galt Ouest","Sherbrooke (Québec)","J1K 1L1"
"Centre de productique intégrée du Québec inc.","Collégial (public)","Sherbrooke","(819) 822-8998","(819) 822-8998","(819) 823-9864","http://www.productique.qc.ca","info@productique.qc.ca","","Public","Collégial","Estrie","","904090","Cégep de Sherbrooke","","720, rue Longpré","Sherbrooke (Québec)","J1G 4L3"
"Centre hospitalier universitaire de Sherbrooke (Site Fleurimont)","Préscolaire, primaire et secondaire (public)","Sherbrooke","(819) 346-1110","(819) 346-1110","","","","Générale","Public","Préscolaire, Primaire, Secondaire","Estrie","Français","752102","Commission scolaire de la Région-de-Sherbrooke","Éliane Arsenault","3001, 12e Avenue Nord","5e pédiatrie, bureau 4504</br>Sherbrooke (Québec)","J1H 5N4"
"Centre Le Goéland","Éducation des adultes (public)","Sherbrooke","(819) 822-5505","(819) 822-5505","(819) 822-5562","","goeland@csrs.qc.ca","Générale","Public","Éducation des adultes","Estrie","Anglais, Français","752367","Commission scolaire de la Région-de-Sherbrooke","Joanne Letendre","90, rue de l'Ontario","Sherbrooke (Québec)","J1J 3P9"
"Centre Saint-Michel","Éducation des adultes (public)","Sherbrooke","(819) 822-5520","(819) 822-5520","(819) 822-4924","http://www.csrs.qc.ca/etablissements","saintmichel@csrs.qc.ca","Générale","Public","Éducation des adultes","Estrie","Anglais, Français","752365","Commission scolaire de la Région-de-Sherbrooke","Carl Tourigny","135, rue King Ouest","Sherbrooke (Québec)","J1H 1P4"
"Champlain Regional College","Collégial (public)","Sherbrooke","(819) 564-3600","(819) 564-3600","(819) 564-3639","http://www.champlaincollege.qc.ca/","dbrisson@champlaincollege.qc.ca","Préuniversitaire Technique","Public","Collégial","Estrie","Anglais","936000","Champlain Regional College","","1301, boul. Portland","Sherbrooke (Québec)","J1J 1S2"
"Collège de comptabilité et de secrétariat du Québec, campus de Sherbrooke inc.","Formation professionnelle (privé)","Sherbrooke","(819) 821-2199","(819) 821-2199","(819) 346-4463","http://www.ccsq.ca","sherbrooke@ccsq.ca","Professionnelle","Privé","Formation professionnelle","Estrie","Anglais, Français","215501","Collège de comptabilité et de secrétariat du Québec, campus de Sherbrooke inc.","Ovila Gaudreault","265, rue du Cégep","Sherbrooke (Québec)","J1E 2J8"
"Collège du Mont Ste-Anne","Secondaire (privé)","Sherbrooke","(819) 823-3003","(819) 823-3003","(819) 569-9636","http://www.collegemsa.qc.ca","msa@collegemsa.qc.ca","Générale","Privé","Secondaire","Estrie","Français","086501","Collège du Mont Ste-Anne","André Ricard","2100, chemin Ste-Catherine","Sherbrooke (Québec)","J1N 3V5"
"Collège du Sacré-Coeur","Secondaire (privé)","Sherbrooke","(819) 569-9457","(819) 569-9457","(819) 820-0636","http://www.cscoeur.ca","info@cscoeur.ca","Générale","Privé","Secondaire","Estrie","Français","087501","Collège du Sacré-Coeur","Daniel Léveillé","155, rue Belvédère Nord","Sherbrooke (Québec)","J1H 4A7"
"Collège Mont Notre-Dame de Sherbrooke inc.","Secondaire (privé)","Sherbrooke","(819) 563-4104","(819) 563-4104","(819) 563-8689","http://www.mont-notre-dame.qc.ca","cmnd@mont-notre-dame.qc.ca","Générale","Privé","Secondaire","Estrie","Français","119501","Collège Mont Notre-Dame de Sherbrooke inc.","Éric Faucher","114, rue de la Cathédrale","Sherbrooke (Québec)","J1H 4M1"
"École Alfred-DesRochers","Préscolaire et primaire (public)","Sherbrooke","(819) 822-5680","(819) 822-5680","(819) 823-3213","http://www.csrs.qc.ca/etablissements","alfreddesrochers@csrs.qc.ca","Générale","Public","Préscolaire, Primaire","Estrie","Français","752044","Commission scolaire de la Région-de-Sherbrooke","Martin St-Jean","7282, chemin de Saint-Élie","Sherbrooke (Québec)","J1R 0K5"
"École Anglissimo","Préscolaire (privé)","Sherbrooke","(819) 562-2323","(819) 562-2323","(819) 566-7656","http://www3.sympatico.ca/anglissimo/","anglissimo@sympatico.ca","Générale","Privé","Préscolaire","Estrie","Français","179501","École Anglissimo","Annie Richard","2796, rue Prospect","Sherbrooke (Québec)","J1L 3A9"
"École Beaulieu","Préscolaire et primaire (public)","Sherbrooke","(819) 822-5642","(819) 822-5642","(819) 823-3217","http://www.csrs.qc.ca/etablissements","beaulieu@csrs.qc.ca","Générale","Public","Préscolaire, Primaire","Estrie","Français","752001","Commission scolaire de la Région-de-Sherbrooke","Lucie Sanschagrin","4565, rue Chambois","Sherbrooke (Québec)","J1N 2B7"
"École Brébeuf","Préscolaire et primaire (public)","Sherbrooke","(819) 822-5644","(819) 822-5644","(819) 822-5645","http://www.csrs.qc.ca/etablissements","brebeuf@csrs.qc.ca","Générale","Public","Préscolaire, Primaire","Estrie","Français","752038","Commission scolaire de la Région-de-Sherbrooke","Patrick Pinsonneault","1875, rue Albert-Skinner","Sherbrooke (Québec)","J1J 1W8"
"École Champlain","Préscolaire et primaire (public)","Sherbrooke","(819) 822-5650","(819) 822-5650","(819) 822-5651","http://www.csrs.qc.ca/etablissements","champlain@csrs.qc.ca","Générale","Public","Préscolaire, Primaire","Estrie","Français","752003","Commission scolaire de la Région-de-Sherbrooke","Élyse Bernier","2985, rue Galt Ouest","Sherbrooke (Québec)","J1K 1M3"
"École de Carillon","Préscolaire et primaire (public)","Sherbrooke","(819) 822-5682","(819) 822-5682","(819) 822-6972","http://www.csrs.qc.ca/etablissements","carillon@csrs.qc.ca","Générale","Public","Préscolaire, Primaire","Estrie","Français","752034","Commission scolaire de la Région-de-Sherbrooke","Manon Larochelle","43, rue de Carillon","Sherbrooke (Québec)","J1J 2K9"
"École de la Maisonnée","Préscolaire et primaire (public)","Sherbrooke","(819) 822-5686","(819) 822-5686","(819) 822-5503","http://www.csrs.qc.ca/etablissements","maisonnee@csrs.qc.ca","Générale","Public","Préscolaire, Primaire","Estrie","Français","752042","Commission scolaire de la Région-de-Sherbrooke","Louis-Philippe Campeau","1500, rue Mi-Vallon","Sherbrooke (Québec)","J1N 3Y5"
"École de la Montée","Secondaire (public)","Sherbrooke","(819) 822-5333","(819) 822-5333","(819) 822-6878","http://www.csrs.qc.ca/etablissements","montee@csrs.qc.ca","Générale","Public","Secondaire","Estrie","Français","752117","Commission scolaire de la Région-de-Sherbrooke","Céline Caron","940, rue de la Sainte-Famille","Sherbrooke (Québec)","J1E 1V1"
"École de la Sainte-Famille","Préscolaire et primaire (public)","Sherbrooke","(819) 822-5694","(819) 822-5694","(819) 822-5488","http://www.csrs.qc.ca/etablissements","saintefamille@csrs.qc.ca","Générale","Public","Préscolaire, Primaire","Estrie","Français","752031","Commission scolaire de la Région-de-Sherbrooke","Sylvie Bureau","233, 8e Avenue Nord","Sherbrooke (Québec)","J1E 2S6"
"École de la Samare","Préscolaire et primaire (public)","Sherbrooke","(819) 822-6888","(819) 822-6888","(819) 822-4537","http://www.csrs.qc.ca/etablissements","samare@csrs.qc.ca","Générale","Public","Préscolaire, Primaire","Estrie","Français","752050","Commission scolaire de la Région-de-Sherbrooke","Nancy Gamache","3000, rue du Chalumeau","Sherbrooke (Québec)","J1G 5E9"
"École de l'Écollectif","Primaire (public)","Sherbrooke","(819) 822-5672","(819) 822-5672","(819) 822-5231","http://www.csrs.qc.ca/etablissements","ecollectif@csrs.qc.ca","Générale","Public","Primaire","Estrie","Français","752049","Commission scolaire de la Région-de-Sherbrooke","Danièle Charest","510, rue Union","Sherbrooke (Québec)","J1H 2X3"
"École des Deux-Rives","Préscolaire et primaire (public)","Sherbrooke","(819) 822-5504","(819) 822-5504","(819) 846-4258","http://www.csrs.qc.ca/etablissements","marieimmaculee@csrs.qc.ca","Générale","Public","Préscolaire, Primaire","Estrie","Français","752015","Commission scolaire de la Région-de-Sherbrooke","Paul Labonté","81, rue du Curé-Larocque","Sherbrooke (Québec)","J1C 0T2"
"École Desjardins","Préscolaire et primaire (public)","Sherbrooke","(819) 822-5652","(819) 822-5652","(819) 822-5323","http://www.csrs.qc.ca/etablissements","desjardins@csrs.qc.ca","Générale","Public","Préscolaire, Primaire","Estrie","Français","752005","Commission scolaire de la Région-de-Sherbrooke","Stéphane Besnard","1080, rue des Jardins-Fleuris","Sherbrooke (Québec)","J1E 1J7"
"École des Quatre-Vents","Préscolaire et primaire (public)","Sherbrooke","(819) 822-5672","(819) 822-5672","(819) 822-5231","http://www.csrs.qc.ca/etablissements","quatrevents@csrs.qc.ca","Générale","Public","Préscolaire, Primaire","Estrie","Français","752027","Commission scolaire de la Région-de-Sherbrooke","Danièle Charest","510, rue de l'Union","Sherbrooke (Québec)","J1H 2X3"
"École Desranleau","Préscolaire et primaire (public)","Sherbrooke","(819) 822-5684","(819) 822-5684","(819) 822-5638","http://www.csrs.qc.ca/etablissements","desranleau@csrs.qc.ca","Générale","Public","Préscolaire, Primaire","Estrie","Français","752006","Commission scolaire de la Région-de-Sherbrooke","Michel Lessard","1970, rue Galt Est","Sherbrooke (Québec)","J1G 3J1"
"École du Boisjoli","Préscolaire et primaire (public)","Sherbrooke","(819) 822-5546","(819) 822-5546","(819) 864-4610","http://www.csrs.qc.ca/etablissements","boisjoli@csrs.qc.ca","Générale","Public","Préscolaire, Primaire","Estrie","Français","752041","Commission scolaire de la Région-de-Sherbrooke","Nicole Clermont","6403, rue Président-Kennedy","Sherbrooke (Québec)","J1N 2P5"
"École du Coeur-Immaculé","Préscolaire et primaire (public)","Sherbrooke","(819) 822-5696","(819) 822-5696","(819) 822-5487","http://www.csrs.qc.ca/etablissements","coeurimmacule@csrs.qc.ca","Générale","Public","Préscolaire, Primaire","Estrie","Français","752004","Commission scolaire de la Région-de-Sherbrooke","Chantal Caron","330, 15e Avenue Sud","Sherbrooke (Québec)","J1G 2X5"
"École du Sacré-Coeur","Préscolaire et primaire (public)","Sherbrooke","(819) 822-5690","(819) 822-5690","(819) 822-5543","http://www.csrs.qc.ca/etablissements","sacrecoeur@csrs.qc.ca","Générale","Public","Préscolaire, Primaire","Estrie","Français","752024","Commission scolaire de la Région-de-Sherbrooke","Lyne Proulx","137, rue Gillespie","Sherbrooke (Québec)","J1H 4W9"
"École du Saint-Esprit","Préscolaire et primaire (public)","Sherbrooke","(819) 822-5670","(819) 822-5670","(819) 822-6862","http://www.csrs.qc.ca/etablissements","saintesprit@csrs.qc.ca","Générale","Public","Préscolaire, Primaire","Estrie","Français","752026","Commission scolaire de la Région-de-Sherbrooke","Anne Lamontagne","2425, rue Galt Ouest","Sherbrooke (Québec)","J1K 1L1"
"École du Soleil-Levant","Préscolaire et primaire (public)","Sherbrooke","(819) 822-5664","(819) 822-5664","(819) 822-5490","http://www.csrs.qc.ca/etablissements","soleillevant@csrs.qc.ca","Générale","Public","Préscolaire, Primaire","Estrie","Français","752017","Commission scolaire de la Région-de-Sherbrooke","Louisa Khennache","830, rue Buck","Sherbrooke (Québec)","J1J 3L5"
"École du Touret","Préscolaire, primaire et secondaire (public)","Sherbrooke","(819) 822-5577","(819) 822-5577","(819) 822-5310","http://www.csrs.qc.ca/etablissements","touret@csrs.qc.ca","Générale","Public","Préscolaire, Primaire, Secondaire","Estrie","Français","752151","Commission scolaire de la Région-de-Sherbrooke","Isabelle Boucher","4076, boulevard de l'Université","Sherbrooke (Québec)","J1N 2Y1"
"École du Triolet","Secondaire (public)","Sherbrooke","(819) 822-5388","(819) 822-5388","(819) 822-4907","http://www.csrs.qc.ca/etablissements","triolet@csrs.qc.ca","Générale","Public","Secondaire","Estrie","Français","752116","Commission scolaire de la Région-de-Sherbrooke","Marc Juneau","2965, boulevard de l'Université","Sherbrooke (Québec)","J1K 2X6"
"École Eymard","Préscolaire et primaire (public)","Sherbrooke","(819) 822-5654","(819) 822-5654","(819) 822-5657","http://www.csrs.qc.ca/etablissements","eymard@csrs.qc.ca","Générale","Public","Préscolaire, Primaire","Estrie","Français","752045","Commission scolaire de la Région-de-Sherbrooke","Isabelle Godin","255, rue Kennedy Nord","Sherbrooke (Québec)","J1E 2E8"
"École Hélène-Boullé","Préscolaire et primaire (public)","Sherbrooke","(819) 823-3233","(819) 823-3233","(819) 823-3220","http://www.csrs.qc.ca/etablissements","heleneboulle@csrs.qc.ca","Générale","Public","Préscolaire, Primaire","Estrie","Français","752009","Commission scolaire de la Région-de-Sherbrooke","Éliane Arsenault","1500, rue Pinard","Sherbrooke (Québec)","J1J 3E1"
"École internationale du Phare","Secondaire (public)","Sherbrooke","(819) 822-5455","(819) 822-5455","(819) 822-6832","http://www.csrs.qc.ca/etablissements","phare@csrs.qc.ca","Générale","Public","Secondaire","Estrie","Français","752148","Commission scolaire de la Région-de-Sherbrooke","Donald Landry","405, rue Sara","Sherbrooke (Québec)","J1H 5S6"
"École Jean-XXIII","Préscolaire et primaire (public)","Sherbrooke","(819) 822-5658","(819) 822-5658","(819) 823-3231","http://www.csrs.qc.ca/etablissements","jeanxxiii@csrs.qc.ca","Générale","Public","Préscolaire, Primaire","Estrie","Français","752010","Commission scolaire de la Région-de-Sherbrooke","Pascale Bilodeau","875, rue Thibault","Sherbrooke (Québec)","J1H 3B3"
"École Laporte","Préscolaire et primaire (public)","Sherbrooke","(819) 822-0728","(819) 822-0728","(819) 822-0922","http://www.csrs.qc.ca/etablissements","laporte@csrs.qc.ca","Générale","Public","Préscolaire, Primaire","Estrie","Français","752012","Commission scolaire de la Région-de-Sherbrooke","Jean Turgeon","655, rue Papineau","Sherbrooke (Québec)","J1E 1Y6"
"École LaRocque","Préscolaire et primaire (public)","Sherbrooke","(819) 822-5688","(819) 822-5688","(819) 822-6858","http://www.csrs.qc.ca/etablissements","larocque@csrs.qc.ca","Générale","Public","Préscolaire, Primaire","Estrie","Français","752013","Commission scolaire de la Région-de-Sherbrooke","Marie-Pierre Tardif","910, rue LaRocque","Sherbrooke (Québec)","J1H 4R6"
"École Le Goéland","Secondaire (public)","Sherbrooke","(819) 822-5505","(819) 822-5505","(819) 822-5562","http://www.csrs.qc.ca/etablissements","goeland@csrs.qc.ca","Générale","Public","Secondaire","Estrie","Français","752167","Commission scolaire de la Région-de-Sherbrooke","Joanne Letendre","90, rue de l'Ontario","Sherbrooke (Québec)","J1J 3P9"
"École Marie-Reine","Préscolaire et primaire (public)","Sherbrooke","(819) 822-5662","(819) 822-5662","(819) 822-6848","http://www.csrs.qc.ca/etablissements","mariereine@csrs.qc.ca","Générale","Public","Préscolaire, Primaire","Estrie","Français","752016","Commission scolaire de la Région-de-Sherbrooke","Linda Pagé","976, rue Caen","Sherbrooke (Québec)","J1G 2A4"
"École Mitchell - Montcalm","Secondaire (public)","Sherbrooke","(819) 822-5633","(819) 822-5633","(819) 822-6842","http://www.csrs.qc.ca/etablissements","mitchellmontcalm@csrs.qc.ca","Générale","Public","Secondaire","Estrie","Français","752124","Commission scolaire de la Région-de-Sherbrooke","Lisa Rodrigue","2050, boulevard Portland","Sherbrooke (Québec)","J1J 1T9"
"École Notre-Dame-de-Liesse","Préscolaire et primaire (public)","Sherbrooke","(819) 822-5514","(819) 822-5514","(819) 864-4790","http://www.csrs.qc.ca/etablissements","nddeliesse@csrs.qc.ca","Générale","Public","Préscolaire, Primaire","Estrie","Français","752018","Commission scolaire de la Région-de-Sherbrooke","Sylvie Patenaude","7409, boulevard Bourque","Sherbrooke (Québec)","J1N 3K7"
"École Notre-Dame-du-Rosaire","Préscolaire et primaire (public)","Sherbrooke","(819) 822-5666","(819) 822-5666","(819) 823-3230","http://www.csrs.qc.ca/etablissements","nddurosaire@csrs.qc.ca","Générale","Public","Préscolaire, Primaire","Estrie","Français","752021","Commission scolaire de la Région-de-Sherbrooke","Alain Poirier","1625, rue du Rosaire","Sherbrooke (Québec)","J1H 2T6"
"École Pie-X - de l'Assomption","Préscolaire et primaire (public)","Sherbrooke","(819) 822-5668","(819) 822-5668","(819) 822-6975","http://www.csrs.qc.ca/etablissements","piexdelassomption@csrs.qc.ca","Générale","Public","Préscolaire, Primaire","Estrie","Français","752023","Commission scolaire de la Région-de-Sherbrooke","Ginette Bisaillon","565, rue Triest","Sherbrooke (Québec)","J1E 2M7"
"École Plein Soleil (Association coopérative)","Préscolaire et primaire (privé)","Sherbrooke","(819) 569-8359","(819) 569-8359","(819) 569-3979","http://www.pleinsoleil.qc.ca","mjmayrand@pleinsoleil.qc.ca","Générale","Privé","Préscolaire, Primaire","Estrie","Français","279501","École Plein Soleil (Association coopérative)","Marie-Josée Mayrand","300, rue de Montréal","Sherbrooke (Québec)","J1H 1E5"
"École primaire de Lennoxville","Préscolaire et primaire (public)","Sherbrooke","(819) 569-5103","(819) 569-5103","(819) 569-5104","http://lennoxville.etsb.qc.ca/","marrotteb@etsb.qc.ca","Générale","Public","Préscolaire, Primaire","Estrie","Anglais","883010","Commission scolaire Eastern Townships","Dawn Irving","1, rue Academy","Sherbrooke (Québec)","J1M 2A6"
"École primaire de Sherbrooke","Préscolaire et primaire (public)","Sherbrooke","(819) 562-3515","(819) 562-3515","(819) 563-3234","http://www.etsb.qc.ca/sherbrooke/default.htm","dohlerd@etsb.qc.ca","Générale","Public","Préscolaire, Primaire","Estrie","Anglais","883017","Commission scolaire Eastern Townships","Peggy McCourt","242, rue Ontario","Sherbrooke (Québec)","J1J 3R1"
"École Primaire La Source (EPLS)","Préscolaire et primaire (privé)","Sherbrooke","(819) 791-3701","(819) 791-3701","(819) 791-7072","http://eplasource.org","eplasource@gmail.com","Générale","Privé","Préscolaire, Primaire","Estrie","Français","628501","École Primaire La Source (EPLS)","Samuel Fortier","1399, rue Campbell","Sherbrooke (Québec)","J1M 0C1"
"École Saint-Antoine","Préscolaire et primaire (public)","Sherbrooke","(819) 822-5692","(819) 822-5692","(819) 562-3908","http://www.csrs.qc.ca/etablissements","saintantoine@csrs.qc.ca","Générale","Public","Préscolaire, Primaire","Estrie","Français","752025","Commission scolaire de la Région-de-Sherbrooke","Jean-Mari Marcotte","16, rue Church","Sherbrooke (Québec)","J1M 1S9"
"École Sainte-Anne","Préscolaire et primaire (public)","Sherbrooke","(819) 822-5674","(819) 822-5674","(819) 822-5675","http://www.csrs.qc.ca/etablissements","sainteanne@csrs.qc.ca","Générale","Public","Préscolaire, Primaire","Estrie","Français","752029","Commission scolaire de la Région-de-Sherbrooke","Caroline Roy","851, rue de l'Ontario","Sherbrooke (Québec)","J1J 3R9"
"École secondaire de Bromptonville","Secondaire (privé)","Sherbrooke","(819) 846-2738","(819) 846-2738","(819) 846-4808","http://esb.bromptonville.qc.ca/esb/","esb@esb.bromptonville.qc.ca","Générale","Privé","Secondaire","Estrie","Français","314501","École secondaire de Bromptonville","Simon Croteau","125, rue du Frère-Théode","Sherbrooke (Québec)","J1C 0S3"
"École secondaire régionale Alexander Galt","Secondaire (public)","Sherbrooke","(819) 563-0770","(819) 563-0770","(819) 563-5304","http://www.etsb.qc.ca/alexandergalt/default.htm","longchampsf@etsb.qc.ca","Générale","Public","Secondaire","Estrie","Anglais","883022","Commission scolaire Eastern Townships","Randolph MacLEAN","1700, rue Collège","Sherbrooke (Québec)","J1M 0C8"
"École Sylvestre","Préscolaire et primaire (public)","Sherbrooke","(819) 822-5676","(819) 822-5676","(819) 822-5321","http://www.csrs.qc.ca/etablissements","sylvestre@csrs.qc.ca","Générale","Public","Préscolaire, Primaire","Estrie","Français","752033","Commission scolaire de la Région-de-Sherbrooke","Manon Carrier","1020, rue Kingston","Sherbrooke (Québec)","J1H 3S1"
"École Val-du-Lac","Préscolaire, primaire et secondaire (public)","Sherbrooke","(819) 864-4221","(819) 864-4221","(819) 864-6975","http://www.csrs.qc.ca/etablissements","valdulac@csrs.qc.ca","Générale","Public","Préscolaire, Primaire, Secondaire","Estrie","Français","752155","Commission scolaire de la Région-de-Sherbrooke","Dany Lemaire","8475, rue Blanchette","Sherbrooke (Québec)","J1N 3A3"
"Le Salésien","Secondaire (privé)","Sherbrooke","(819) 566-2222","(819) 566-2222","(819) 566-6969","http://www.seminairesalesien.org","salesien@seminairesalesien.org","Générale","Privé","Secondaire","Estrie","Français","457501","Le Salésien","Raymond Lepage","135, rue Don Bosco Nord","Sherbrooke (Québec)","J1L 1E5"
"Séminaire de Sherbrooke","Collégial (privé)","Sherbrooke","(819) 563-2050","(819) 563-2050","(819) 562-8261","http://www.seminaire-sherbrooke.qc.ca","courrier@seminaire-sherbrooke.qc.ca","Préuniversitaire Technique","Privé","Collégial","Estrie","Français","270543","Séminaire de Sherbrooke","","195, rue Marquette","Sherbrooke (Québec)","J1H 1L6"
"Université Bishop's","Universitaire","Sherbrooke","(819) 822-9600","(819) 822-9600","(819) 822-9661","http://www.ubishops.ca/","","","","Universitaire","Estrie","Anglais","981000","Université Bishop's","","2600, rue du Collège","Sherbrooke (Québec)","J1M 1Z7"
"Université de Sherbrooke","Universitaire","Sherbrooke","(819) 821-7000","(819) 821-7000","","http://www.usherbrooke.ca/","information@USherbrooke.ca","","","Universitaire","Estrie","Français","977000","Université de Sherbrooke","","2500, boulevard de l'Université","Sherbrooke (Québec)","J1K 2R1"
"Villa Marie-Claire","Secondaire (public)","Sherbrooke","(819) 563-1622","(819) 563-1622","(819) 563-6990","","ThibaultMJ@csrs.qc.ca","Générale","Public","Secondaire","Estrie","Français","752165","Commission scolaire de la Région-de-Sherbrooke","Carl Tourigny","470, rue Victoria","Sherbrooke (Québec)","J1H 3J2"
"Vision Sherbrooke inc.","Préscolaire et primaire (privé)","Sherbrooke","(819) 821-1133","(819) 821-1133","(819) 821-3909","http://www.visionschools.com","sherbrooke@visionschools.com","Générale","Privé","Préscolaire, Primaire","Estrie","Anglais, Français","553501","Vision Sherbrooke inc.","Marisa St-Pierre","5100, rue Henri-Labonne","Sherbrooke (Québec)","J1N 1J1"
"Collège Stanstead","Secondaire (privé)","Stanstead","(819) 876-2223","(819) 876-2223","(819) 876-5891","http://www.stansteadcollege.com","admissions@stansteadcollege.com","Générale","Privé","Secondaire","Estrie","Anglais","463501","Collège Stanstead","Michael Wolfe","450, rue Dufferin","Stanstead (Québec)","J0B 3E0"
"École du Jardin-des-Frontières","Préscolaire et primaire (public)","Stanstead","(819) 847-1610","(819) 847-1610","(819) 876-7535","http://www.csdessommets.qc.ca/ecoles/jdf/index.htm","jdesfrontieres@csdessommets.qc.ca","Générale","Public","Préscolaire, Primaire","Estrie","Français","753025","Commission scolaire des Sommets","Julie Dubois","7, rue Park","Stanstead (Québec)","J0B 3E0"
"École primaire Sunnyside","Préscolaire et primaire (public)","Stanstead","(819) 876-2469","(819) 876-2469","(819) 876-5480","http://sunnyside.etsb.qc.ca/","strattonh@etsb.qc.ca","Générale","Public","Préscolaire, Primaire","Estrie","Anglais","883019","Commission scolaire Eastern Townships","Steve Weary","441, rue Dufferin","Stanstead (Québec)","J0B 3E2"
"École Notre-Dame-des-Champs","Préscolaire et primaire (public)","Stoke","(819) 822-5519","(819) 822-5519","(819) 878-3779","http://www.csrs.qc.ca/etablissements","nddeschamps@csrs.qc.ca","Générale","Public","Préscolaire, Primaire","Estrie","Français","752035","Commission scolaire de la Région-de-Sherbrooke","Denis Dalpé","222, 8e Rang Est","Stoke (Québec)","J0B 3G0"
"École de la Rose-des-Vents","Préscolaire et primaire (public)","Stornoway","(819) 583-0085","(819) 583-0085","(819) 652-1115","","Johanne.Bedard@cshc.qc.ca","Générale","Public","Préscolaire, Primaire","Estrie","Français","751089","Commission scolaire des Hauts-Cantons","Diane Gaudreau","475, route 108","Stornoway (Québec)","G0Y 1N0"
"École Dominique Savio","Primaire (public)","Stratford","(418) 338-7800","(418) 338-7800","(418) 443-2291","http://www.csappalaches.qc.ca","ecole_domsavio@csappalaches.qc.ca","Générale","Public","Primaire","Estrie","Français","822011","Commission scolaire des Appalaches","Vicky Bolduc","150, avenue Centrale Nord","Stratford (Québec)","G0Y 1P0"
"École de la Chanterelle","Préscolaire et primaire (public)","Valcourt","(819) 847-1610","(819) 847-1610","(450) 532-3178","","lachanterelle@csdessommets.qc.ca","Générale","Public","Préscolaire, Primaire","Estrie","Français","753055","Commission scolaire des Sommets","Angela Elias","1100, rue Champêtre","Valcourt (Québec)","J0E 2L0"
"École secondaire de l'Odyssée","Secondaire (public)","Valcourt","(819) 847-1610","(819) 847-1610","(450) 532-2973","http://www.csdessommets.qc.ca/ecoles/odyssee/index.html","lodyssee@csdessommets.qc.ca","Générale","Public","Secondaire","Estrie","Français","753053","Commission scolaire des Sommets","Hugues Émond","900, rue Montcalm","Valcourt (Québec)","J0E 2L0"
"Collège François-Delaplace","Secondaire (privé)","Waterville","(819) 837-2882","(819) 837-2882","(819) 837-0625","http://www.college-francois-delaplace.qc.ca","secretariat@college-francois-delaplace.qc.ca","Générale","Privé","Secondaire","Estrie","Français","098501","Collège François-Delaplace","Josée Hamel","365, rue Compton Est","Waterville (Québec)","J0B 3H0"
"École des Enfants-de-la-Terre","Préscolaire, primaire et secondaire (public)","Waterville","(819) 822-5302","(819) 822-5302","(819) 837-0991","http://www.csrs.qc.ca/etablissements","enfantsdelaterre@csrs.qc.ca","Générale","Public","Préscolaire, Primaire, Secondaire","Estrie","Français","752055","Commission scolaire de la Région-de-Sherbrooke","Ariane Brouillette","2000, chemin Val-Estrie","Waterville (Québec)","J0B 3H0"
"École Notre-Dame-du-Sacré-Coeur","Préscolaire et primaire (public)","Weedon","(819) 832-1983","(819) 832-1983","(819) 877-3131","","Francoise.Sirois@cshc.qc.ca","Générale","Public","Préscolaire, Primaire","Estrie","Français","751068","Commission scolaire des Hauts-Cantons","David Morin","211, rue Saint-Janvier","Weedon (Québec)","J0B 3J0"
"Centre d'excellence en formation industrielle","Formation professionnelle (public)","Windsor","(819) 847-1610","(819) 847-1610","(819) 845-1001","","cfpmorilac@csdessommets.qc.ca","Professionnelle","Public","Formation professionnelle","Estrie","Français","753403","Commission scolaire des Sommets","Claude Carrier","100, rue Boisjoli","Windsor (Québec)","J1S 2X8"
"École Saint-Gabriel","Préscolaire et primaire (public)","Windsor","(819) 847-1610","(819) 847-1610","(819) 845-4298","","stgabriel@csdessommets.qc.ca","Générale","Public","Préscolaire, Primaire","Estrie","Français","753065","Commission scolaire des Sommets","Marc Poirier","65, rue Saint-Antoine","Windsor (Québec)","J1S 1S1"
"École Saint-Philippe","Préscolaire et primaire (public)","Windsor","(819) 847-1610","(819) 847-1610","(819) 845-4798","http://csdessommets.qc.ca/ecoles/st-philippe/école_st.htm","stphilippe@csdessommets.qc.ca","Générale","Public","Préscolaire, Primaire","Estrie","Français","753067","Commission scolaire des Sommets","Josée Poirier","101, rue Ambroise-Dearden","Windsor (Québec)","J1S 1H2"
"École secondaire du Tournesol","Secondaire (public)","Windsor","(819) 847-1610","(819) 847-1610","(819) 845-5740","http://www.csdessommets.qc.ca/ecoles/tournesol/accueil.html","letournesol@csdessommets.qc.ca","Générale","Public","Secondaire","Estrie","Français","753057","Commission scolaire des Sommets","Sylvie Bernier","250, rue Saint-Georges","Windsor (Québec)","J1S 1K4"
"École Hamelin","Préscolaire et primaire (public)","Wotton","(819) 847-1610","(819) 847-1610","(819) 828-0445","","alexandre.neron@csdessommets.qc.ca","Générale","Public","Préscolaire, Primaire","Estrie","Français","753005","Commission scolaire des Sommets","Alexandre Néron","405, rue Monseigneur L'Heureux","Wotton (Québec)","J0A 1N0"
